{"type": "FeatureCollection", "features": [{"type": "Feature", "geometry": {"type": "Polygon", "coordinates": [[[8.687938476566702, 58.478110329866965, 44.25], [8.687965427987516, 58.478106892645656, 44.25], [8.687869107103896, 58.47786963822654, 44.169999999998254], [8.687842870388366, 58.47786984384816, 44.169999999998254], [8.687938476566702, 58.478110329866965, 44.25]]]}, "properties": {"farge": "#fdae61"}}, {"type": "Feature", "geometry": {"type": "Polygon", "coordinates": [[[8.845777671420343, 58.445572451029015, 6.279999999998836], [8.845786080982203, 58.44556895838047, 6.279999999998836], [8.845722433955444, 58.44551131080943, 6.639999999999418], [8.84564500223358, 58.44543280967796, 6.7299999999959255], [8.845562334223596, 58.44533741708778, 6.820000000006985], [8.845479512280082, 58.44523816223824, 6.9100000000034925], [8.845409977272023, 58.4451561677136, 7.0], [8.845343552838516, 58.4451071387836, 7.0899999999965075], [8.845286636327296, 58.44507761101262, 7.179999999993015], [8.845190029209062, 58.445036000181936, 7.2700000000040745], [8.845162293821975, 58.44503219449422, 7.2700000000040745], [8.845157326274288, 58.44503209868222, 7.2700000000040745], [8.84515012777279, 58.44503289832022, 7.2700000000040745], [8.845129925224297, 58.445030179493465, 7.2700000000040745], [8.84510016295828, 58.44501981489383, 7.2700000000040745], [8.845046957142237, 58.4450035840282, 7.2700000000040745], [8.845010181950336, 58.44499078594543, 7.2700000000040745], [8.844900231554274, 58.44494502730673, 7.44999999999709], [8.844847941776955, 58.44491532530647, 7.44999999999709], [8.84483151402019, 58.44491126378332, 7.44999999999709], [8.844832787892779, 58.444894290403504, 7.539999999993597], [8.844847359969876, 58.44485290359635, 7.539999999993597], [8.844902719741157, 58.44480779391646, 7.539999999993597], [8.845002708448535, 58.44474244010428, 7.539999999993597], [8.845127211783309, 58.444672984358114, 7.630000000004657], [8.845269396229657, 58.4445951072708, 7.630000000004657], [8.845269413575227, 58.44459115545807, 7.630000000004657], [8.845267877338443, 58.44458989620296, 7.630000000004657], [8.845261204281297, 58.444588091863544, 7.630000000004657], [8.84525691689545, 58.44458916446321, 7.630000000004657], [8.845252266789604, 58.44459481715947, 7.630000000004657], [8.845246940131313, 58.444598493122385, 7.630000000004657], [8.845203311606962, 58.4446250255314, 7.630000000004657], [8.845151798183625, 58.44465262617804, 7.630000000004657], [8.845033825159899, 58.44471741949054, 7.630000000004657], [8.844924245356998, 58.44478231265791, 7.630000000004657], [8.844853450203821, 58.444831445323004, 7.539999999993597], [8.844832608550753, 58.44485719684032, 7.539999999993597], [8.844823780540874, 58.44487793328473, 7.539999999993597], [8.844817691862284, 58.444899032300796, 7.539999999993597], [8.844811835769386, 58.44490621036636, 7.460000000006403], [8.844796608361337, 58.44490188084802, 7.539999999993597], [8.8446300000754, 58.444845994184234, 7.539999999993597], [8.844494051943174, 58.44479113244235, 7.539999999993597], [8.844388089286413, 58.4447348699126, 7.539999999993597], [8.844298365395034, 58.44468671030701, 7.539999999993597], [8.844238187677472, 58.44465897439622, 7.539999999993597], [8.844144518580077, 58.444612067292, 7.539999999993597], [8.844074484805686, 58.44456635644488, 7.539999999993597], [8.843990389028617, 58.4445240414009, 7.539999999993597], [8.843846459403212, 58.444453900809485, 7.539999999993597], [8.843834143309236, 58.44444984416436, 7.539999999993597], [8.84382882806378, 58.44445091546469, 7.539999999993597], [8.843825741381346, 58.44445163022109, 7.539999999993597], [8.843822993330825, 58.44445324353385, 7.539999999993597], [8.843821953162657, 58.444456026513706, 7.539999999993597], [8.843831001719563, 58.44446295324198, 7.539999999993597], [8.843924679149294, 58.44450779485577, 7.539999999993597], [8.84407373164933, 58.444581713792154, 7.539999999993597], [8.844235913467235, 58.44466965954785, 7.539999999993597], [8.844378459622948, 58.444743121152584, 7.539999999993597], [8.84455060095, 58.444826048985696, 7.539999999993597], [8.844635258751453, 58.44485776624118, 7.539999999993597], [8.844815554721876, 58.44491753148059, 7.539999999993597], [8.844855909839431, 58.4449342857837, 7.539999999993597], [8.844907034873192, 58.44495617251954, 7.539999999993597], [8.844958331278532, 58.44497805944205, 7.539999999993597], [8.845052727537134, 58.445015895572304, 7.360000000000582], [8.845079409393769, 58.44502553794673, 7.360000000000582], [8.845125788964934, 58.44503583280538, 7.360000000000582], [8.845152832805034, 58.44504107469629, 7.360000000000582], [8.845193740408307, 58.445049117563386, 7.360000000000582], [8.845279060512643, 58.44508631386939, 7.179999999993015], [8.845341621945744, 58.44511773455351, 7.0899999999965075], [8.84539830778032, 58.445160823995, 7.0], [8.845437676561092, 58.44520730548872, 6.9100000000034925], [8.845494932947966, 58.44527662137649, 6.9100000000034925], [8.845571144757056, 58.44535970166589, 6.820000000006985], [8.845635217881421, 58.445437288620845, 6.7299999999959255], [8.845697300820666, 58.445499963959925, 6.639999999999418], [8.845762139495642, 58.445559319450055, 6.460000000006403], [8.845777671420343, 58.445572451029015, 6.279999999998836]]]}, "properties": {"farge": "#d7191c"}}, {"type": "Feature", "geometry": {"type": "Polygon", "coordinates": [[[8.813939046979668, 58.47253152297545, 0.11000000000058208], [8.813968982719171, 58.47251171747148, 0.11000000000058208], [8.813526271903434, 58.472487812992604, 0.03999999999359716], [8.813527569717369, 58.4725017360603, 0.03999999999359716], [8.813939046979668, 58.47253152297545, 0.11000000000058208]]]}, "properties": {"farge": "#fdae61"}}, {"type": "Feature", "geometry": {"type": "Polygon", "coordinates": [[[8.8990982955393, 58.48560323326677, 8.039999999993597], [8.899119404696158, 58.485598399919354, 8.039999999993597], [8.898937894212267, 58.4854389275429, 8.039999999993597], [8.898919863194813, 58.485446906765816, 8.039999999993597], [8.8990982955393, 58.48560323326677, 8.039999999993597]]]}, "properties": {"farge": "#fdae61"}}, {"type": "Feature", "geometry": {"type": "Polygon", "coordinates": [[[8.864729053595985, 58.461595504516616, 12.369999999995343], [8.86474396995942, 58.46159408321843, 12.429999999993015], [8.864631377432994, 58.46145753679837, 12.429999999993015], [8.864623277657348, 58.461469114273584, 12.369999999995343], [8.864729053595985, 58.461595504516616, 12.369999999995343]]]}, "properties": {"farge": "#d7191c"}}, {"type": "Feature", "geometry": {"type": "Polygon", "coordinates": [[[8.900624376548524, 58.543708976803, 13.490000000005239], [8.900745826753854, 58.543832473635604, 13.490000000005239], [8.900849125526811, 58.54393556881196, 13.490000000005239], [8.90088562067098, 58.54396972587937, 13.490000000005239], [8.900905506622573, 58.54398456034998, 13.490000000005239], [8.900927484240569, 58.543988708693895, 13.490000000005239], [8.900928381712742, 58.54397505782319, 13.610000000000582], [8.900902465833488, 58.543966325983156, 13.610000000000582], [8.900895101628693, 58.54395823714042, 13.610000000000582], [8.900879697220107, 58.543938107163875, 13.610000000000582], [8.900800054437141, 58.543853082676094, 13.610000000000582], [8.900710128248418, 58.543759697589344, 13.610000000000582], [8.900648276683574, 58.54370145100275, 13.610000000000582], [8.900549249757017, 58.54360689119467, 13.39999999999418], [8.900476954467392, 58.54353633206902, 13.39999999999418], [8.900440792035205, 58.54350630653498, 13.39999999999418], [8.900415762820266, 58.54348796530053, 13.39999999999418], [8.900404836351433, 58.54346397678071, 13.39999999999418], [8.900404053827383, 58.54343703229773, 13.39999999999418], [8.900464759174085, 58.543293288855374, 13.19999999999709], [8.900480172502927, 58.54324947208936, 13.19999999999709], [8.900488768508511, 58.54318651988791, 13.19999999999709], [8.900486931787569, 58.543167837376856, 13.19999999999709], [8.900488533355995, 58.54314825939972, 13.19999999999709], [8.90049253714133, 58.543129671225316, 13.19999999999709], [8.90050695297741, 58.54307408818906, 13.19999999999709], [8.900533278001783, 58.542998755527734, 13.19999999999709], [8.900550023691006, 58.54296966910313, 13.19999999999709], [8.900576380473897, 58.54294373356706, 13.19999999999709], [8.900616169314242, 58.54290622254926, 13.19999999999709], [8.900636485543199, 58.542890161749796, 13.19999999999709], [8.900656284617709, 58.54287472923767, 13.19999999999709], [8.900665074146627, 58.542864676986035, 13.19999999999709], [8.900670945346354, 58.54285390397403, 13.19999999999709], [8.90068164406685, 58.54283693760177, 13.19999999999709], [8.900709046856203, 58.54280552425795, 13.19999999999709], [8.900754006216085, 58.54276190991353, 13.19999999999709], [8.900775904146714, 58.54273318669037, 13.19999999999709], [8.900825353326507, 58.5426812231856, 13.19999999999709], [8.900868273024853, 58.542629793500836, 13.19999999999709], [8.900926175841787, 58.54256490341701, 13.19999999999709], [8.900963721060918, 58.54253080345094, 13.19999999999709], [8.900982328443426, 58.54251141820012, 13.19999999999709], [8.900993010956455, 58.54250011000347, 13.19999999999709], [8.901029360895464, 58.54246340452171, 13.19999999999709], [8.901051666007007, 58.54241195889154, 13.19999999999709], [8.901076009176126, 58.54236877761661, 13.19999999999709], [8.901084330162659, 58.542342019768746, 13.19999999999709], [8.901086596736441, 58.542330166206334, 13.19999999999709], [8.901079948299198, 58.54231201887418, 13.19999999999709], [8.90106585247621, 58.54231542091141, 13.19999999999709], [8.901059446148112, 58.542333288752076, 13.19999999999709], [8.901025909111564, 58.54240816690765, 13.19999999999709], [8.900987416788919, 58.54247361087666, 13.19999999999709], [8.90094605744617, 58.542520102093995, 13.19999999999709], [8.900925733211235, 58.542539126763806, 13.19999999999709], [8.900841976290003, 58.54263462310521, 13.19999999999709], [8.900802857378748, 58.54267842161675, 13.25], [8.900735144876581, 58.54274950115709, 13.25], [8.900683972532736, 58.54280325955321, 13.25], [8.900658466986313, 58.5428319799709, 13.25], [8.90063639533334, 58.5428613317298, 13.25], [8.900634326280757, 58.54286402451741, 13.25], [8.900623978471467, 58.54287838658215, 13.25], [8.900607284999213, 58.542889061406775, 13.25], [8.900569424723416, 58.542912832536494, 13.25], [8.90051292982257, 58.542965419175786, 13.35000000000582], [8.900502408620573, 58.54298031997388, 13.35000000000582], [8.900494972947355, 58.54299755829702, 13.35000000000582], [8.900480531161683, 58.54306230223102, 13.35000000000582], [8.90046453534781, 58.54312982915944, 13.35000000000582], [8.900458549983012, 58.54318083826361, 13.35000000000582], [8.900456642438106, 58.54324774741435, 13.35000000000582], [8.900452640657065, 58.54326561708544, 13.35000000000582], [8.900451770770548, 58.5432694783671, 13.35000000000582], [8.90043290814234, 58.54331805254132, 13.35000000000582], [8.90037033231335, 58.54345496873564, 13.39999999999418], [8.900371506549286, 58.54346493888045, 13.39999999999418], [8.900374919899612, 58.543472845064436, 13.39999999999418], [8.900380054451176, 58.54347958501502, 13.39999999999418], [8.900392218077434, 58.54349135993892, 13.39999999999418], [8.900421876413544, 58.543512938031185, 13.39999999999418], [8.900457181673335, 58.54354233421593, 13.39999999999418], [8.900542496298359, 58.54362583649252, 13.39999999999418], [8.900624376548524, 58.543708976803, 13.490000000005239]]]}, "properties": {"farge": "#fdae61"}}, {"type": "Feature", "geometry": {"type": "Polygon", "coordinates": [[[8.900928381712742, 58.54397505782319, 13.610000000000582], [8.900927484240569, 58.543988708693895, 13.490000000005239], [8.901126985271551, 58.544031613330105, 13.490000000005239], [8.901135278799357, 58.544014734885025, 13.610000000000582], [8.900928381712742, 58.54397505782319, 13.610000000000582]]]}, "properties": {"farge": "#fdae61"}}, {"type": "Feature", "geometry": {"type": "Polygon", "coordinates": [[[8.985373477151278, 58.559713577726164, 6.669999999998254], [8.985453059800601, 58.55969535479498, 6.669999999998254], [8.985398247546064, 58.559662297530096, 6.669999999998254], [8.98534413183138, 58.55960777510172, 6.669999999998254], [8.985318357390666, 58.55959403082681, 6.669999999998254], [8.985284334709418, 58.55957696253499, 6.669999999998254], [8.985202197589611, 58.55953977067277, 6.669999999998254], [8.985138789437949, 58.55951380750435, 6.669999999998254], [8.985022792273044, 58.55948244942827, 6.669999999998254], [8.984895281375252, 58.559448395515396, 6.669999999998254], [8.984701259024899, 58.55941244750969, 6.669999999998254], [8.98450396609048, 58.55938898277296, 6.429999999993015], [8.984454299830837, 58.55938161213829, 6.429999999993015], [8.984286227872808, 58.55935078596242, 6.429999999993015], [8.984056633871562, 58.5593070189288, 6.429999999993015], [8.983822565710515, 58.55927672281725, 6.429999999993015], [8.983802803199172, 58.5592721398834, 6.429999999993015], [8.983793867396594, 58.559269444377655, 6.429999999993015], [8.983785104084108, 58.55926540170353, 6.429999999993015], [8.983778231800372, 58.559260281515826, 6.429999999993015], [8.98377273544496, 58.55925300599819, 6.429999999993015], [8.983752982683162, 58.559227406900376, 6.429999999993015], [8.983739753115795, 58.559218513775846, 6.429999999993015], [8.98372755433457, 58.55921051890689, 6.429999999993015], [8.983607787782171, 58.5591590410432, 6.429999999993015], [8.983494557960665, 58.55909588826387, 6.429999999993015], [8.9833450706342, 58.55902087542151, 6.429999999993015], [8.9832416191939, 58.55899715143489, 6.429999999993015], [8.983189893655249, 58.55898501997241, 6.429999999993015], [8.983175629946734, 58.558982772789754, 6.429999999993015], [8.983153460370424, 58.558980704194624, 6.429999999993015], [8.983150023030149, 58.55898079355659, 6.429999999993015], [8.983100697556408, 58.558981325955486, 6.429999999993015], [8.982917473264783, 58.55901489165852, 6.429999999993015], [8.982888079396949, 58.559025036576436, 6.429999999993015], [8.982736294436966, 58.55908213711556, 6.429999999993015], [8.982696745345525, 58.55912281692284, 6.429999999993015], [8.982668712498432, 58.55916080389216, 6.429999999993015], [8.982662347032315, 58.559173825866345, 6.429999999993015], [8.982652199269298, 58.559189362083536, 6.429999999993015], [8.982651337941935, 58.55919340353604, 6.429999999993015], [8.982636208499189, 58.559203999384174, 6.429999999993015], [8.982628471819508, 58.55920947690958, 6.429999999993015], [8.982620220028645, 58.55921396642583, 6.429999999993015], [8.982608530915256, 58.55921845547642, 6.429999999993015], [8.982605436837177, 58.559219442996685, 6.429999999993015], [8.98259787384131, 58.559221238225554, 6.429999999993015], [8.982590483289925, 58.55922186591303, 6.429999999993015], [8.982582749050758, 58.559222403740854, 6.429999999993015], [8.982575702543084, 58.559222402785636, 6.429999999993015], [8.98252723909203, 58.55921682782177, 6.429999999993015], [8.982484105653654, 58.559206942559605, 6.429999999993015], [8.982461422353579, 58.559200922018974, 6.429999999993015], [8.98242224641222, 58.559181966199425, 6.190000000002328], [8.982413826021087, 58.559179899356664, 6.190000000002328], [8.982407811302231, 58.55917873096907, 6.190000000002328], [8.982341305554264, 58.55916614807802, 5.94999999999709], [8.982273251202606, 58.559157247257154, 5.470000000001164], [8.982178039280594, 58.559153911020516, 5.2299999999959255], [8.982166696326622, 58.55915355019637, 5.2299999999959255], [8.982156384932411, 58.559152471013356, 5.2299999999959255], [8.982145043258578, 58.55914959543358, 5.2299999999959255], [8.98208678500942, 58.559141324563086, 4.990000000005239], [8.98202887231261, 58.55912955102152, 4.869999999995343], [8.981942429930836, 58.55911786326076, 4.630000000004657], [8.981895681673189, 58.55911947331091, 4.630000000004657], [8.98184034241131, 58.55911668131097, 4.389999999999418], [8.981764895687084, 58.55911235962067, 4.029999999998836], [8.981635994399475, 58.559116472646735, 3.429999999993015], [8.981525140949298, 58.559116816008505, 3.070000000006985], [8.98147100506419, 58.559113485146646, 2.710000000006403], [8.98133832651722, 58.55911041231817, 2.470000000001164], [8.981282814490505, 58.559109416305866, 2.3500000000058208], [8.981181069207658, 58.55911110788671, 2.110000000000582], [8.981084307094816, 58.559114506560725, 1.6300000000046566], [8.980995103933662, 58.55912365428905, 1.6300000000046566], [8.980921885838052, 58.55912984051236, 1.5099999999947613], [8.980847810447186, 58.559132254435276, 1.389999999999418], [8.98081721905811, 58.55913099249554, 1.389999999999418], [8.980796251701697, 58.55913054030078, 1.389999999999418], [8.980739881020732, 58.559128286548635, 1.389999999999418], [8.980679905570641, 58.559118038904835, 1.2700000000040745], [8.980602917161116, 58.55910473503641, 1.2700000000040745], [8.980466306364361, 58.5590647477183, 1.1499999999941792], [8.980450670777651, 58.55905729089139, 1.1499999999941792], [8.980441908253686, 58.559052619300715, 1.1499999999941792], [8.980411502750268, 58.559026389378054, 1.1499999999941792], [8.98038693392443, 58.559012285045824, 1.1499999999941792], [8.980335044279723, 58.558988027702306, 1.0299999999988358], [8.980306864233473, 58.55897769493306, 0.9100000000034925], [8.980257200700946, 58.55896807735999, 0.9100000000034925], [8.98015873948981, 58.5589374360842, 0.9100000000034925], [8.9800989423591, 58.558916680117086, 0.9100000000034925], [8.980009245746894, 58.55888738727317, 0.9100000000034925], [8.979949791133054, 58.55886905623114, 0.9100000000034925], [8.979929172038974, 58.55886096987442, 0.9100000000034925], [8.979829856739899, 58.55882224507453, 0.9100000000034925], [8.979741703636284, 58.55879941879615, 0.9100000000034925], [8.979727786442265, 58.55879286027833, 0.9100000000034925], [8.979698749646172, 58.5587786652964, 0.9100000000034925], [8.979663185744581, 58.558758092577214, 0.9100000000034925], [8.979640851218557, 58.55874470695643, 0.7899999999935972], [8.979589662580045, 58.55869871476132, 0.7899999999935972], [8.97956921025159, 58.558699699450464, 0.6699999999982538], [8.979588621369848, 58.55871595862421, 0.6699999999982538], [8.979602878789368, 58.55872844484589, 0.6699999999982538], [8.979671425892894, 58.55877417034468, 0.7899999999935972], [8.979731561068736, 58.55880390782915, 0.7899999999935972], [8.979753556654035, 58.55880912042991, 0.7899999999935972], [8.979831743373698, 58.55882898131909, 0.7899999999935972], [8.979846691528461, 58.55883598905056, 0.7899999999935972], [8.97985889187256, 58.558839493656436, 0.7899999999935972], [8.979889817849266, 58.55885620365173, 0.7899999999935972], [8.979927614062126, 58.558880548787634, 0.7899999999935972], [8.979939126253518, 58.55888531065541, 0.7899999999935972], [8.979949608698318, 58.55888755760749, 0.7899999999935972], [8.979981230825459, 58.558889179165014, 0.7899999999935972], [8.979988964160398, 58.558890168308565, 0.7899999999935972], [8.979989823380047, 58.55889034806765, 0.7899999999935972], [8.980118861957347, 58.558946141747555, 0.9100000000034925], [8.980194298794968, 58.55896698992929, 0.9100000000034925], [8.980256332787235, 58.558983345376035, 1.0299999999988358], [8.980274032697865, 58.558987210037834, 1.0299999999988358], [8.980287778811501, 58.55899269071833, 1.0299999999988358], [8.980299633205071, 58.55900032661078, 1.0299999999988358], [8.980361657454699, 58.559034285283055, 1.1499999999941792], [8.980384165509951, 58.559045515301015, 1.1499999999941792], [8.980395504898608, 58.55905216316688, 1.1499999999941792], [8.980482964408603, 58.559087921910844, 1.1499999999941792], [8.980551697868751, 58.55911083455479, 1.2700000000040745], [8.980574036902722, 58.55911712481849, 1.2700000000040745], [8.980681957179282, 58.55913761836902, 1.2700000000040745], [8.980769429645592, 58.559150654321414, 1.389999999999418], [8.980786443168556, 58.5591528123696, 1.389999999999418], [8.980813082941022, 58.559151738598075, 1.389999999999418], [8.980827864519137, 58.559149675113446, 1.389999999999418], [8.980867912797573, 58.55914312475921, 1.5099999999947613], [8.980912599967297, 58.55913926946078, 1.5099999999947613], [8.980932708392638, 58.55913900300796, 1.5099999999947613], [8.98099389377323, 58.55913676675563, 1.5099999999947613], [8.98100489249232, 58.55913802575885, 1.5099999999947613], [8.981024829244875, 58.55913740001564, 1.5099999999947613], [8.981061613431867, 58.559128244552454, 1.5099999999947613], [8.981104067808245, 58.559121604666494, 1.6300000000046566], [8.981186566399812, 58.559115778948915, 2.110000000000582], [8.98126407798787, 58.55911534120985, 2.470000000001164], [8.981296904827797, 58.55911435805259, 2.710000000006403], [8.981324231826315, 58.5591136435257, 2.710000000006403], [8.981394867549795, 58.55911553983698, 2.710000000006403], [8.981476500304273, 58.55912192832709, 2.9499999999970896], [8.981552120248235, 58.559123645644995, 3.3099999999976717], [8.981591306725733, 58.55912149576099, 3.5500000000029104], [8.981601962624987, 58.55912104822375, 3.5500000000029104], [8.981615023324114, 58.55912311578368, 3.6699999999982538], [8.981669849467774, 58.55912114773751, 3.6699999999982538], [8.981756815347298, 58.55911747779438, 4.149999999994179], [8.98179445375776, 58.559117752569925, 4.2700000000040745], [8.981858900777118, 58.55912270137903, 4.389999999999418], [8.981895334884102, 58.55912540089637, 4.509999999994761], [8.981938301275378, 58.5591254069424, 4.630000000004657], [8.982006184904085, 58.55913179316287, 4.75], [8.98206581707967, 58.559141950327074, 4.990000000005239], [8.982071488370702, 58.55914248999427, 4.990000000005239], [8.982084891782272, 58.55914662324496, 4.990000000005239], [8.982122184893884, 58.559150041318844, 5.110000000000582], [8.982154836679705, 58.55915534480289, 5.110000000000582], [8.982166522087642, 58.5591582204295, 5.110000000000582], [8.982215331589748, 58.559158945694755, 5.350000000005821], [8.982230970461638, 58.559160744110905, 5.470000000001164], [8.982250389155123, 58.55916496798854, 5.5899999999965075], [8.982257607789446, 58.55916443010951, 5.5899999999965075], [8.982265857708837, 58.55916371274716, 5.5899999999965075], [8.982276341882649, 58.55916299569242, 5.5899999999965075], [8.982294387786348, 58.55916299817999, 5.710000000006403], [8.982333399186507, 58.55916722474303, 5.94999999999709], [8.982399560796646, 58.55918061590482, 6.190000000002328], [8.98241159005479, 58.55918331193095, 6.190000000002328], [8.982447502470595, 58.559198405364576, 6.429999999993015], [8.98245867106206, 58.559203795647925, 6.429999999993015], [8.982490632661822, 58.55921475714868, 6.429999999993015], [8.982532564524492, 58.55922167842826, 6.429999999993015], [8.982594777090073, 58.55922761450355, 6.429999999993015], [8.982612137075746, 58.559224563223864, 6.429999999993015], [8.98262107553366, 58.55922169042852, 6.429999999993015], [8.982632076871338, 58.5592178299723, 6.429999999993015], [8.982644110912767, 58.55921091602492, 6.429999999993015], [8.982650988171754, 58.55920561800784, 6.429999999993015], [8.982660100528943, 58.55919861385179, 6.429999999993015], [8.982662852114148, 58.5591951115301, 6.429999999993015], [8.982674716005082, 58.55918469486389, 6.429999999993015], [8.982678328645797, 58.55917768996499, 6.429999999993015], [8.982680222228273, 58.55917149314804, 6.429999999993015], [8.982681773009295, 58.55916341021944, 6.429999999993015], [8.982684182985214, 58.5591555968445, 6.429999999993015], [8.982696048185009, 58.55914248579724, 6.429999999993015], [8.982738520955813, 58.55909785462685, 6.429999999993015], [8.982746601942694, 58.55909111976394, 6.429999999993015], [8.982751587540074, 58.559088066803405, 6.429999999993015], [8.982766543180304, 58.55908124304915, 6.429999999993015], [8.982827051825462, 58.55905664248556, 6.429999999993015], [8.982883260034612, 58.559039675395226, 6.429999999993015], [8.98293688864143, 58.55902594119291, 6.429999999993015], [8.983076966606497, 58.55900952400227, 6.429999999993015], [8.983101888155698, 58.55900719215305, 6.429999999993015], [8.983123028542533, 58.55900512924038, 6.429999999993015], [8.98314846257535, 58.559009263959595, 6.429999999993015], [8.983163757353674, 58.55901178071829, 6.429999999993015], [8.983188331425582, 58.559017262506615, 6.429999999993015], [8.983315666423792, 58.55905302453305, 6.429999999993015], [8.983322883098165, 58.55905652816281, 6.429999999993015], [8.98333112977101, 58.55906254667972, 6.429999999993015], [8.983361884284616, 58.55908230944627, 6.55000000000291], [8.983372364496782, 58.55908985506456, 6.55000000000291], [8.983384564048118, 58.55909596390204, 6.55000000000291], [8.983423916860392, 58.559105219686124, 6.55000000000291], [8.983432165682034, 58.55910674756475, 6.55000000000291], [8.983445740554988, 58.55911204825993, 6.55000000000291], [8.983485945290878, 58.55913711115939, 6.55000000000291], [8.983497628479018, 58.55914492635992, 6.55000000000291], [8.983512403524971, 58.559156424274335, 6.55000000000291], [8.983524430499116, 58.55916414970386, 6.55000000000291], [8.983552440660668, 58.559172595680025, 6.55000000000291], [8.983565327735423, 58.559178704588255, 6.55000000000291], [8.983615503206375, 58.55919873921386, 6.55000000000291], [8.983639043981144, 58.559209160479234, 6.55000000000291], [8.98366533270334, 58.559223713470985, 6.55000000000291], [8.983727192195202, 58.55925021604742, 6.55000000000291], [8.983730971419124, 58.559254168282024, 6.55000000000291], [8.983733891146302, 58.55925847965828, 6.55000000000291], [8.983736981949656, 58.55926449749623, 6.55000000000291], [8.983744884677021, 58.55927123444397, 6.55000000000291], [8.983754849761615, 58.5592780614646, 6.55000000000291], [8.98376412937914, 58.559280577391156, 6.55000000000291], [8.983776501886291, 58.55928462052242, 6.55000000000291], [8.983822554946055, 58.55930007410181, 6.55000000000291], [8.983826850447668, 58.559302589396346, 6.55000000000291], [8.983833035942943, 58.55930627249281, 6.55000000000291], [8.983841455662265, 58.55931004568253, 6.55000000000291], [8.983845751827932, 58.559311123974325, 6.55000000000291], [8.98398048764293, 58.55932757655329, 6.669999999998254], [8.984077243298586, 58.55933908459565, 6.669999999998254], [8.98418963362456, 58.55936227013239, 6.669999999998254], [8.984295317232862, 58.5593945258276, 6.669999999998254], [8.984342746843234, 58.559407195196805, 6.669999999998254], [8.984356665503713, 58.55941294490057, 6.669999999998254], [8.984360961977979, 58.5594133944867, 6.669999999998254], [8.98437024235477, 58.55941438355475, 6.669999999998254], [8.984383820286011, 58.5594133972664, 6.669999999998254], [8.984490719442501, 58.559418170281766, 6.669999999998254], [8.984753832760365, 58.55945286944386, 6.669999999998254], [8.984790266226236, 58.55945835233184, 6.669999999998254], [8.984937885848376, 58.55949169020619, 6.669999999998254], [8.98499476887598, 58.55950355212842, 6.669999999998254], [8.985012812576977, 58.55950912261736, 6.669999999998254], [8.985150800665396, 58.55955988277423, 6.669999999998254], [8.985211804197842, 58.55958243277973, 6.669999999998254], [8.985224691938848, 58.55958800264544, 6.669999999998254], [8.985287923111226, 58.55962662933211, 6.669999999998254], [8.985302353893863, 58.55964127044251, 6.669999999998254], [8.985314207943926, 58.55965285762734, 6.669999999998254], [8.985328295575107, 58.55966615150608, 6.669999999998254], [8.985373477151278, 58.559713577726164, 6.669999999998254]]]}, "properties": {"farge": "#d7191c"}}, {"type": "Feature", "geometry": {"type": "Polygon", "coordinates": [[[8.97956921025159, 58.558699699450464, 0.6699999999982538], [8.979589662580045, 58.55869871476132, 0.7899999999935972], [8.97869370607735, 58.558468559142895, 0.07000000000698492], [8.978697133129543, 58.55848535467674, 0.07000000000698492], [8.97956921025159, 58.558699699450464, 0.6699999999982538]]]}, "properties": {"farge": "#d7191c"}}]}