{"type": "FeatureCollection", "features": [{"type": "Feature", "geometry": {"type": "Point", "coordinates": [8.753790453953522, 58.57929297849128, 0.0]}, "properties": {"tier": "mulig", "gradient_pct": 9.8, "elvenavn": null}}, {"type": "Feature", "geometry": {"type": "Point", "coordinates": [8.774956366261922, 58.54630350530369, 0.0]}, "properties": {"tier": "sikker", "gradient_pct": 13.1, "elvenavn": null}}, {"type": "Feature", "geometry": {"type": "Point", "coordinates": [8.865477522731167, 58.5220821373395, 0.0]}, "properties": {"tier": "sikker", "gradient_pct": 18.2, "elvenavn": null}}, {"type": "Feature", "geometry": {"type": "Point", "coordinates": [8.756376429863568, 58.508569434086624, 0.0]}, "properties": {"tier": "sikker", "gradient_pct": 11.9, "elvenavn": null}}, {"type": "Feature", "geometry": {"type": "Point", "coordinates": [8.525542046862572, 58.48383114737012, 0.0]}, "properties": {"tier": "sikker", "gradient_pct": 10.7, "elvenavn": null}}, {"type": "Feature", "geometry": {"type": "Point", "coordinates": [8.525633189479116, 58.44016820337037, 0.0]}, "properties": {"tier": "mulig", "gradient_pct": 9.2, "elvenavn": null}}, {"type": "Feature", "geometry": {"type": "Point", "coordinates": [8.54660007718711, 58.42792894158374, 0.0]}, "properties": {"tier": "mulig", "gradient_pct": 7.3, "elvenavn": null}}, {"type": "Feature", "geometry": {"type": "Point", "coordinates": [8.553080724009254, 58.42662994110082, 0.0]}, "properties": {"tier": "sikker", "gradient_pct": 19.4, "elvenavn": null}}, {"type": "Feature", "geometry": {"type": "Point", "coordinates": [8.549030540992336, 58.41994493437081, 0.0]}, "properties": {"tier": "sikker", "gradient_pct": 24.8, "elvenavn": null}}, {"type": "Feature", "geometry": {"type": "Point", "coordinates": [8.700249988187785, 58.42595575844254, 0.0]}, "properties": {"tier": "mulig", "gradient_pct": 9.6, "elvenavn": null}}, {"type": "Feature", "geometry": {"type": "Point", "coordinates": [8.643534077393317, 58.41215598692014, 0.0]}, "properties": {"tier": "mulig", "gradient_pct": 7.3, "elvenavn": null}}, {"type": "Feature", "geometry": {"type": "Point", "coordinates": [8.743930695819222, 58.422447378920886, 0.0]}, "properties": {"tier": "mulig", "gradient_pct": 7.1, "elvenavn": null}}, {"type": "Feature", "geometry": {"type": "Point", "coordinates": [8.646720612138013, 58.42227815190163, 0.0]}, "properties": {"tier": "mulig", "gradient_pct": 8.6, "elvenavn": null}}, {"type": "Feature", "geometry": {"type": "Point", "coordinates": [8.762197512225562, 58.53363139529251, 0.0]}, "properties": {"tier": "sikker", "gradient_pct": 10.9, "elvenavn": null}}, {"type": "Feature", "geometry": {"type": "Point", "coordinates": [8.880776521185654, 58.525525855858845, 0.0]}, "properties": {"tier": "sikker", "gradient_pct": 17.6, "elvenavn": null}}, {"type": "Feature", "geometry": {"type": "Point", "coordinates": [8.505949054628486, 58.49954803756022, 0.0]}, "properties": {"tier": "sikker", "gradient_pct": 13.0, "elvenavn": null}}, {"type": "Feature", "geometry": {"type": "Point", "coordinates": [8.508841791707374, 58.46627126594296, 0.0]}, "properties": {"tier": "mulig", "gradient_pct": 8.3, "elvenavn": null}}, {"type": "Feature", "geometry": {"type": "Point", "coordinates": [8.536228923532247, 58.46659605125314, 0.0]}, "properties": {"tier": "sikker", "gradient_pct": 17.7, "elvenavn": null}}, {"type": "Feature", "geometry": {"type": "Point", "coordinates": [8.523951669362862, 58.46454577792113, 0.0]}, "properties": {"tier": "mulig", "gradient_pct": 9.5, "elvenavn": null}}, {"type": "Feature", "geometry": {"type": "Point", "coordinates": [8.538914892236505, 58.445941489568085, 0.0]}, "properties": {"tier": "sikker", "gradient_pct": 23.9, "elvenavn": null}}, {"type": "Feature", "geometry": {"type": "Point", "coordinates": [8.637539894256362, 58.444830213972075, 0.0]}, "properties": {"tier": "sikker", "gradient_pct": 10.7, "elvenavn": null}}, {"type": "Feature", "geometry": {"type": "Point", "coordinates": [8.539468005023503, 58.43033045741622, 0.0]}, "properties": {"tier": "sikker", "gradient_pct": 11.4, "elvenavn": null}}, {"type": "Feature", "geometry": {"type": "Point", "coordinates": [8.547109804695758, 58.426972839058024, 0.0]}, "properties": {"tier": "mulig", "gradient_pct": 9.4, "elvenavn": null}}, {"type": "Feature", "geometry": {"type": "Point", "coordinates": [8.719649761951308, 58.44167373974134, 0.0]}, "properties": {"tier": "mulig", "gradient_pct": 7.6, "elvenavn": null}}, {"type": "Feature", "geometry": {"type": "Point", "coordinates": [8.79743542451556, 58.586546655430595, 0.0]}, "properties": {"tier": "mulig", "gradient_pct": 8.4, "elvenavn": null}}, {"type": "Feature", "geometry": {"type": "Point", "coordinates": [8.759636550739001, 58.576251312103295, 0.0]}, "properties": {"tier": "sikker", "gradient_pct": 18.6, "elvenavn": null}}, {"type": "Feature", "geometry": {"type": "Point", "coordinates": [8.831746440913607, 58.51591878495512, 0.0]}, "properties": {"tier": "sikker", "gradient_pct": 19.1, "elvenavn": null}}, {"type": "Feature", "geometry": {"type": "Point", "coordinates": [8.7400043089264, 58.5183561948936, 0.0]}, "properties": {"tier": "mulig", "gradient_pct": 7.7, "elvenavn": null}}, {"type": "Feature", "geometry": {"type": "Point", "coordinates": [8.748232237205023, 58.505264485771015, 0.0]}, "properties": {"tier": "sikker", "gradient_pct": 12.2, "elvenavn": null}}, {"type": "Feature", "geometry": {"type": "Point", "coordinates": [8.527705329632708, 58.45230007201842, 0.0]}, "properties": {"tier": "mulig", "gradient_pct": 9.7, "elvenavn": null}}, {"type": "Feature", "geometry": {"type": "Point", "coordinates": [8.672737479488354, 58.44882112275699, 0.0]}, "properties": {"tier": "sikker", "gradient_pct": 10.4, "elvenavn": null}}, {"type": "Feature", "geometry": {"type": "Point", "coordinates": [8.776599149926707, 58.566210158493476, 0.0]}, "properties": {"tier": "sikker", "gradient_pct": 11.3, "elvenavn": null}}, {"type": "Feature", "geometry": {"type": "Point", "coordinates": [8.812297859125872, 58.53279918184493, 0.0]}, "properties": {"tier": "mulig", "gradient_pct": 9.0, "elvenavn": null}}, {"type": "Feature", "geometry": {"type": "Point", "coordinates": [8.743551907004088, 58.52264652304629, 0.0]}, "properties": {"tier": "sikker", "gradient_pct": 11.0, "elvenavn": null}}, {"type": "Feature", "geometry": {"type": "Point", "coordinates": [8.688165177181832, 58.495212155061985, 0.0]}, "properties": {"tier": "sikker", "gradient_pct": 13.1, "elvenavn": null}}, {"type": "Feature", "geometry": {"type": "Point", "coordinates": [8.52074328233125, 58.478637158640936, 0.0]}, "properties": {"tier": "mulig", "gradient_pct": 7.2, "elvenavn": null}}, {"type": "Feature", "geometry": {"type": "Point", "coordinates": [8.801094720781204, 58.48717927757283, 0.0]}, "properties": {"tier": "mulig", "gradient_pct": 8.6, "elvenavn": "Songevassdraget"}}, {"type": "Feature", "geometry": {"type": "Point", "coordinates": [8.578374641690619, 58.41600181715154, 0.0]}, "properties": {"tier": "mulig", "gradient_pct": 7.6, "elvenavn": null}}, {"type": "Feature", "geometry": {"type": "Point", "coordinates": [8.657557581930988, 58.42708499286736, 0.0]}, "properties": {"tier": "sikker", "gradient_pct": 19.2, "elvenavn": null}}, {"type": "Feature", "geometry": {"type": "Point", "coordinates": [8.52050748419866, 58.468374493752535, 0.0]}, "properties": {"tier": "sikker", "gradient_pct": 10.1, "elvenavn": null}}, {"type": "Feature", "geometry": {"type": "Point", "coordinates": [8.523076647556085, 58.47627553406629, 0.0]}, "properties": {"tier": "sikker", "gradient_pct": 14.0, "elvenavn": null}}, {"type": "Feature", "geometry": {"type": "Point", "coordinates": [8.819638373027145, 58.47962922617297, 0.0]}, "properties": {"tier": "mulig", "gradient_pct": 9.8, "elvenavn": null}}, {"type": "Feature", "geometry": {"type": "Point", "coordinates": [8.826143022440878, 58.51222331159819, 0.0]}, "properties": {"tier": "sikker", "gradient_pct": 11.7, "elvenavn": null}}, {"type": "Feature", "geometry": {"type": "Point", "coordinates": [8.791956371809311, 58.50272133851701, 0.0]}, "properties": {"tier": "mulig", "gradient_pct": 7.1, "elvenavn": null}}, {"type": "Feature", "geometry": {"type": "Point", "coordinates": [8.728508366680428, 58.50143586849185, 0.0]}, "properties": {"tier": "sikker", "gradient_pct": 23.2, "elvenavn": null}}, {"type": "Feature", "geometry": {"type": "Point", "coordinates": [8.523776246069371, 58.47382346319356, 0.0]}, "properties": {"tier": "sikker", "gradient_pct": 15.5, "elvenavn": null}}, {"type": "Feature", "geometry": {"type": "Point", "coordinates": [8.523783028898368, 58.469786244105926, 0.0]}, "properties": {"tier": "mulig", "gradient_pct": 9.1, "elvenavn": null}}, {"type": "Feature", "geometry": {"type": "Point", "coordinates": [8.555483134016674, 58.439101724508056, 0.0]}, "properties": {"tier": "mulig", "gradient_pct": 9.5, "elvenavn": null}}, {"type": "Feature", "geometry": {"type": "Point", "coordinates": [8.64009251773267, 58.440407193607996, 0.0]}, "properties": {"tier": "sikker", "gradient_pct": 10.6, "elvenavn": null}}, {"type": "Feature", "geometry": {"type": "Point", "coordinates": [8.532218281325108, 58.46440776126391, 0.0]}, "properties": {"tier": "mulig", "gradient_pct": 7.5, "elvenavn": null}}, {"type": "Feature", "geometry": {"type": "Point", "coordinates": [8.547316203067734, 58.42683400807075, 0.0]}, "properties": {"tier": "mulig", "gradient_pct": 7.1, "elvenavn": null}}, {"type": "Feature", "geometry": {"type": "Point", "coordinates": [8.83172336725302, 58.58837779541199, 0.0]}, "properties": {"tier": "sikker", "gradient_pct": 12.3, "elvenavn": null}}, {"type": "Feature", "geometry": {"type": "Point", "coordinates": [8.804707620178892, 58.58356664865093, 0.0]}, "properties": {"tier": "mulig", "gradient_pct": 7.4, "elvenavn": null}}, {"type": "Feature", "geometry": {"type": "Point", "coordinates": [8.508401176477774, 58.50050764206526, 0.0]}, "properties": {"tier": "mulig", "gradient_pct": 9.6, "elvenavn": null}}, {"type": "Feature", "geometry": {"type": "Point", "coordinates": [8.675454507720282, 58.501555370509685, 0.0]}, "properties": {"tier": "sikker", "gradient_pct": 10.3, "elvenavn": null}}, {"type": "Feature", "geometry": {"type": "Point", "coordinates": [8.69767943598317, 58.49640490527798, 0.0]}, "properties": {"tier": "sikker", "gradient_pct": 12.2, "elvenavn": null}}, {"type": "Feature", "geometry": {"type": "Point", "coordinates": [8.797712017221926, 58.49762325910128, 0.0]}, "properties": {"tier": "sikker", "gradient_pct": 17.0, "elvenavn": null}}, {"type": "Feature", "geometry": {"type": "Point", "coordinates": [8.694236039174777, 58.46798346917548, 0.0]}, "properties": {"tier": "mulig", "gradient_pct": 8.6, "elvenavn": null}}, {"type": "Feature", "geometry": {"type": "Point", "coordinates": [8.705319789466346, 58.46191964311131, 0.0]}, "properties": {"tier": "mulig", "gradient_pct": 9.0, "elvenavn": "Biebekken"}}, {"type": "Feature", "geometry": {"type": "Point", "coordinates": [8.574554347270931, 58.453020726463635, 0.0]}, "properties": {"tier": "sikker", "gradient_pct": 10.2, "elvenavn": null}}, {"type": "Feature", "geometry": {"type": "Point", "coordinates": [8.556492662666734, 58.43273531466107, 0.0]}, "properties": {"tier": "mulig", "gradient_pct": 7.5, "elvenavn": null}}, {"type": "Feature", "geometry": {"type": "Point", "coordinates": [8.567230721790509, 58.412779741312136, 0.0]}, "properties": {"tier": "sikker", "gradient_pct": 14.8, "elvenavn": null}}, {"type": "Feature", "geometry": {"type": "Point", "coordinates": [8.771235355831832, 58.520504062540056, 0.0]}, "properties": {"tier": "mulig", "gradient_pct": 7.5, "elvenavn": null}}]}