{"type": "FeatureCollection", "features": [{"type": "Feature", "geometry": {"type": "Point", "coordinates": [8.952380589302713, 58.548684421294524]}, "properties": {"bekk": "Blekestrandsbekken", "beskrivelse": "Antatt naturlig vandringshinder, Kjetil Flakke", "registrert": "april 12, 2016"}}, {"type": "Feature", "geometry": {"type": "Point", "coordinates": [8.88568896616598, 58.57667573190693]}, "properties": {"bekk": "Langangsvassdraget", "beskrivelse": "Lakseregistret. Punkt må sjekkes. Reg. F.Kroglund", "registrert": "april 12, 2016"}}, {"type": "Feature", "geometry": {"type": "Point", "coordinates": [8.8360888884331, 58.50742094245742]}, "properties": {"bekk": "Mørfjærbekken", "beskrivelse": "Lakseregistret. Punkt må sjekkes. Reg. F.Kroglund", "registrert": "april 12, 2016"}}, {"type": "Feature", "geometry": {"type": "Point", "coordinates": [8.829136580333806, 58.48410768094681]}, "properties": {"bekk": null, "beskrivelse": null, "registrert": "april 12, 2016"}}, {"type": "Feature", "geometry": {"type": "Point", "coordinates": [8.829403753540763, 58.48365596719723]}, "properties": {"bekk": null, "beskrivelse": "Foss", "registrert": "april 12, 2016"}}, {"type": "Feature", "geometry": {"type": "Point", "coordinates": [8.979611065230804, 58.54085228698776]}, "properties": {"bekk": null, "beskrivelse": null, "registrert": "april 12, 2016"}}]}